2026-027E               
1 67750U 26027E   26068.49892316  .00010512  00000+0  51772-3 0  9999
2 67750  97.4915 197.5336 0009507 205.8329 154.2431 15.18115065  3833
2026-027F               
1 67751U 26027F   26067.57357006  .00005399  00000+0  26617-3 0  9997
2 67751  97.4915 196.6238 0010586 208.9394 151.1254 15.18308880  3692
2026-027G               
1 67752U 26027G   26068.51519721  .00008949  00000+0  52185-3 0  9990
2 67752  97.4906 197.5104 0012003 228.7419 131.2778 15.12137169  3839
JIELONG-3 R/B           
1 67753U 26027H   26068.50865955  .00537461  23698-5  70717-3 0  9994
2 67753  97.5117 199.5197 0214008 245.5172 112.3643 15.75798697  3953
JIELONG-3 DEB           
1 67754U 26027J   26068.52431976  .11639869  23850-5  35620-3 0  9990
2 67754  97.4912 200.1120 0056653 252.6916 106.8178 16.36666444  3937
2026-028A               
1 67756U 26028A   26064.32694001  .00000004  00000+0  00000+0 0  9994
2 67756   0.4806 289.7424 0042016 229.1663 201.2342  0.99523939   215
JAM-E JAM 1             
1 67757U 26028B   26065.58849579  .00000151  00000+0  00000+0 0  9999
2 67757   0.5003 285.7022 0004514 129.9316 355.2368  1.00260970    99
KUIPER-00159            
1 67764U 26030A   26068.43703513  .00035467  00000+0  10092-2 0  9997
2 67764  51.8835 220.3847 0005324  42.2259 317.9136 15.35784138  5051
KUIPER-00160            
1 67765U 26030B   26068.43868101  .00039277  00000+0  11220-2 0  9990
2 67765  51.8803 220.3859 0005571  50.9572 309.1909 15.35611148  5059
KUIPER-00177            
1 67766U 26030C   26068.42398138  .00029850  00000+0  83134-3 0  9998
2 67766  51.8829 220.2966 0001195  15.4791 344.6232 15.36550172  5056
KUIPER-00178            
1 67767U 26030D   26068.44050486  .00037609  00000+0  10762-2 0  9999
2 67767  51.8825 220.4040 0006832  43.7345 316.4182 15.35570754  5058
KUIPER-00180            
1 67768U 26030E   26068.41528564  .00035031  00000+0  11371-2 0  9998
2 67768  51.8823 220.9670 0013610  73.0506 287.1969 15.31540346  5044
