CCSDS_OMM_VERS = 2.0
CREATION_DATE  = 
ORIGINATOR     = 

OBJECT_NAME    = 2026-027E
OBJECT_ID      = 2026-027E
CENTER_NAME    = EARTH
REF_FRAME      = TEME
TIME_SYSTEM    = UTC
MEAN_ELEMENT_THEORY = SGP/SGP4

EPOCH          = 2026-03-09T11:58:26.961024
MEAN_MOTION    = 15.18115065
ECCENTRICITY   = .0009507
INCLINATION    = 97.4915
RA_OF_ASC_NODE = 197.5336
ARG_OF_PERICENTER = 205.8329
MEAN_ANOMALY   = 154.2431

EPHEMERIS_TYPE = 0
CLASSIFICATION_TYPE = U
NORAD_CAT_ID   = 67750
ELEMENT_SET_NO = 999
REV_AT_EPOCH   = 383
BSTAR          = .51772E-3
MEAN_MOTION_DOT = .10512E-3
MEAN_MOTION_DDOT = 0

CCSDS_OMM_VERS = 2.0
CREATION_DATE  = 
ORIGINATOR     = 

OBJECT_NAME    = 2026-027F
OBJECT_ID      = 2026-027F
CENTER_NAME    = EARTH
REF_FRAME      = TEME
TIME_SYSTEM    = UTC
MEAN_ELEMENT_THEORY = SGP/SGP4

EPOCH          = 2026-03-08T13:45:56.453184
MEAN_MOTION    = 15.18308880
ECCENTRICITY   = .00105861
INCLINATION    = 97.4915
RA_OF_ASC_NODE = 196.6238
ARG_OF_PERICENTER = 208.9394
MEAN_ANOMALY   = 151.1254

EPHEMERIS_TYPE = 0
CLASSIFICATION_TYPE = U
NORAD_CAT_ID   = 67751
ELEMENT_SET_NO = 999
REV_AT_EPOCH   = 369
BSTAR          = .26616807E-3
MEAN_MOTION_DOT = .5399E-4
MEAN_MOTION_DDOT = 0

CCSDS_OMM_VERS = 2.0
CREATION_DATE  = 
ORIGINATOR     = 

OBJECT_NAME    = 2026-027G
OBJECT_ID      = 2026-027G
CENTER_NAME    = EARTH
REF_FRAME      = TEME
TIME_SYSTEM    = UTC
MEAN_ELEMENT_THEORY = SGP/SGP4

EPOCH          = 2026-03-09T12:21:53.038944
MEAN_MOTION    = 15.12137169
ECCENTRICITY   = .0012003
INCLINATION    = 97.4906
RA_OF_ASC_NODE = 197.5104
ARG_OF_PERICENTER = 228.7419
MEAN_ANOMALY   = 131.2778

EPHEMERIS_TYPE = 0
CLASSIFICATION_TYPE = U
NORAD_CAT_ID   = 67752
ELEMENT_SET_NO = 999
REV_AT_EPOCH   = 383
BSTAR          = .52185E-3
MEAN_MOTION_DOT = .8949E-4
MEAN_MOTION_DDOT = 0

CCSDS_OMM_VERS = 2.0
CREATION_DATE  = 
ORIGINATOR     = 

OBJECT_NAME    = JIELONG-3 R/B
OBJECT_ID      = 2026-027H
CENTER_NAME    = EARTH
REF_FRAME      = TEME
TIME_SYSTEM    = UTC
MEAN_ELEMENT_THEORY = SGP/SGP4

EPOCH          = 2026-03-09T12:12:28.185120
MEAN_MOTION    = 15.75798697
ECCENTRICITY   = .0214008
INCLINATION    = 97.5117
RA_OF_ASC_NODE = 199.5197
ARG_OF_PERICENTER = 245.5172
MEAN_ANOMALY   = 112.3643

EPHEMERIS_TYPE = 0
CLASSIFICATION_TYPE = U
NORAD_CAT_ID   = 67753
ELEMENT_SET_NO = 999
REV_AT_EPOCH   = 395
BSTAR          = .70717E-3
MEAN_MOTION_DOT = .537461E-2
MEAN_MOTION_DDOT = .23698E-5

CCSDS_OMM_VERS = 2.0
CREATION_DATE  = 
ORIGINATOR     = 

OBJECT_NAME    = JIELONG-3 DEB
OBJECT_ID      = 2026-027J
CENTER_NAME    = EARTH
REF_FRAME      = TEME
TIME_SYSTEM    = UTC
MEAN_ELEMENT_THEORY = SGP/SGP4

EPOCH          = 2026-03-09T12:35:01.227264
MEAN_MOTION    = 16.36666444
ECCENTRICITY   = .0056653
INCLINATION    = 97.4912
RA_OF_ASC_NODE = 200.1120
ARG_OF_PERICENTER = 252.6916
MEAN_ANOMALY   = 106.8178

EPHEMERIS_TYPE = 0
CLASSIFICATION_TYPE = U
NORAD_CAT_ID   = 67754
ELEMENT_SET_NO = 999
REV_AT_EPOCH   = 393
BSTAR          = .3562E-3
MEAN_MOTION_DOT = .11639869E+0
MEAN_MOTION_DDOT = .2385E-5

CCSDS_OMM_VERS = 2.0
CREATION_DATE  = 
ORIGINATOR     = 

OBJECT_NAME    = 2026-028A
OBJECT_ID      = 2026-028A
CENTER_NAME    = EARTH
REF_FRAME      = TEME
TIME_SYSTEM    = UTC
MEAN_ELEMENT_THEORY = SGP/SGP4

EPOCH          = 2026-03-05T07:50:47.616864
MEAN_MOTION    = 0.99523939
ECCENTRICITY   = .0042016
INCLINATION    = 0.4806
RA_OF_ASC_NODE = 289.7424
ARG_OF_PERICENTER = 229.1663
MEAN_ANOMALY   = 201.2342

EPHEMERIS_TYPE = 0
CLASSIFICATION_TYPE = U
NORAD_CAT_ID   = 67756
ELEMENT_SET_NO = 999
REV_AT_EPOCH   = 21
BSTAR          = 0
MEAN_MOTION_DOT = .4E-7
MEAN_MOTION_DDOT = 0

CCSDS_OMM_VERS = 2.0
CREATION_DATE  = 
ORIGINATOR     = 

OBJECT_NAME    = JAM-E JAM 1
OBJECT_ID      = 2026-028B
CENTER_NAME    = EARTH
REF_FRAME      = TEME
TIME_SYSTEM    = UTC
MEAN_ELEMENT_THEORY = SGP/SGP4

EPOCH          = 2026-03-06T14:07:26.036256
MEAN_MOTION    = 1.00260970
ECCENTRICITY   = .00045148
INCLINATION    = 0.5003
RA_OF_ASC_NODE = 285.7022
ARG_OF_PERICENTER = 129.9316
MEAN_ANOMALY   = 355.2368

EPHEMERIS_TYPE = 0
CLASSIFICATION_TYPE = U
NORAD_CAT_ID   = 67757
ELEMENT_SET_NO = 999
REV_AT_EPOCH   = 9
BSTAR          = 0
MEAN_MOTION_DOT = .151E-5
MEAN_MOTION_DDOT = 0

CCSDS_OMM_VERS = 2.0
CREATION_DATE  = 
ORIGINATOR     = 

OBJECT_NAME    = KUIPER-00159
OBJECT_ID      = 2026-030A
CENTER_NAME    = EARTH
REF_FRAME      = TEME
TIME_SYSTEM    = UTC
MEAN_ELEMENT_THEORY = SGP/SGP4

EPOCH          = 2026-03-09T10:29:19.835232
MEAN_MOTION    = 15.35784138
ECCENTRICITY   = .0005324
INCLINATION    = 51.8835
RA_OF_ASC_NODE = 220.3847
ARG_OF_PERICENTER = 42.2259
MEAN_ANOMALY   = 317.9136

EPHEMERIS_TYPE = 0
CLASSIFICATION_TYPE = U
NORAD_CAT_ID   = 67764
ELEMENT_SET_NO = 999
REV_AT_EPOCH   = 505
BSTAR          = .10092E-2
MEAN_MOTION_DOT = .35467E-3
MEAN_MOTION_DDOT = 0

CCSDS_OMM_VERS = 2.0
CREATION_DATE  = 
ORIGINATOR     = 

OBJECT_NAME    = KUIPER-00160
OBJECT_ID      = 2026-030B
CENTER_NAME    = EARTH
REF_FRAME      = TEME
TIME_SYSTEM    = UTC
MEAN_ELEMENT_THEORY = SGP/SGP4

EPOCH          = 2026-03-09T10:31:42.039264
MEAN_MOTION    = 15.35611148
ECCENTRICITY   = .0005571
INCLINATION    = 51.8803
RA_OF_ASC_NODE = 220.3859
ARG_OF_PERICENTER = 50.9572
MEAN_ANOMALY   = 309.1909

EPHEMERIS_TYPE = 0
CLASSIFICATION_TYPE = U
NORAD_CAT_ID   = 67765
ELEMENT_SET_NO = 999
REV_AT_EPOCH   = 505
BSTAR          = .1122E-2
MEAN_MOTION_DOT = .39277E-3
MEAN_MOTION_DDOT = 0

CCSDS_OMM_VERS = 2.0
CREATION_DATE  = 
ORIGINATOR     = 

OBJECT_NAME    = KUIPER-00177
OBJECT_ID      = 2026-030C
CENTER_NAME    = EARTH
REF_FRAME      = TEME
TIME_SYSTEM    = UTC
MEAN_ELEMENT_THEORY = SGP/SGP4

EPOCH          = 2026-03-09T10:10:31.991232
MEAN_MOTION    = 15.36550172
ECCENTRICITY   = .0001195
INCLINATION    = 51.8829
RA_OF_ASC_NODE = 220.2966
ARG_OF_PERICENTER = 15.4791
MEAN_ANOMALY   = 344.6232

EPHEMERIS_TYPE = 0
CLASSIFICATION_TYPE = U
NORAD_CAT_ID   = 67766
ELEMENT_SET_NO = 999
REV_AT_EPOCH   = 505
BSTAR          = .83134E-3
MEAN_MOTION_DOT = .2985E-3
MEAN_MOTION_DDOT = 0

CCSDS_OMM_VERS = 2.0
CREATION_DATE  = 
ORIGINATOR     = 

OBJECT_NAME    = KUIPER-00178
OBJECT_ID      = 2026-030D
CENTER_NAME    = EARTH
REF_FRAME      = TEME
TIME_SYSTEM    = UTC
MEAN_ELEMENT_THEORY = SGP/SGP4

EPOCH          = 2026-03-09T10:34:19.619904
MEAN_MOTION    = 15.35570754
ECCENTRICITY   = .0006832
INCLINATION    = 51.8825
RA_OF_ASC_NODE = 220.4040
ARG_OF_PERICENTER = 43.7345
MEAN_ANOMALY   = 316.4182

EPHEMERIS_TYPE = 0
CLASSIFICATION_TYPE = U
NORAD_CAT_ID   = 67767
ELEMENT_SET_NO = 999
REV_AT_EPOCH   = 505
BSTAR          = .10762E-2
MEAN_MOTION_DOT = .37609E-3
MEAN_MOTION_DDOT = 0

CCSDS_OMM_VERS = 2.0
CREATION_DATE  = 
ORIGINATOR     = 

OBJECT_NAME    = KUIPER-00180
OBJECT_ID      = 2026-030E
CENTER_NAME    = EARTH
REF_FRAME      = TEME
TIME_SYSTEM    = UTC
MEAN_ELEMENT_THEORY = SGP/SGP4

EPOCH          = 2026-03-09T09:58:00.679296
MEAN_MOTION    = 15.31540346
ECCENTRICITY   = .001361
INCLINATION    = 51.8823
RA_OF_ASC_NODE = 220.9670
ARG_OF_PERICENTER = 73.0506
MEAN_ANOMALY   = 287.1969

EPHEMERIS_TYPE = 0
CLASSIFICATION_TYPE = U
NORAD_CAT_ID   = 67768
ELEMENT_SET_NO = 999
REV_AT_EPOCH   = 504
BSTAR          = .11371E-2
MEAN_MOTION_DOT = .35031E-3
MEAN_MOTION_DDOT = 0

